{
  "type": "FeatureCollection",
  "features": [
    {
      "type": "Feature",
      "properties": {
        "norad_id": 64903,
        "name": "CO3D 1",
        "group": "resource",
        "lat": -77.2277449811708,
        "lon": -145.6278975880573,
        "alt_km": 513.1800567505788,
        "timestamp": "2025-12-19T08:58:48.995513+00:00",
        "meta_object_name": "CO3D 1",
        "meta_object_id": "2025-156E",
        "meta_epoch": "2025-12-18T22:21:48.316608",
        "meta_mean_motion": 15.20207451,
        "meta_eccentricity": 9.105e-05,
        "meta_inclination": 97.4346,
        "meta_ra_of_asc_node": 69.1094,
        "meta_arg_of_pericenter": 79.7349,
        "meta_mean_anomaly": 280.3988,
        "meta_ephemeris_type": 0,
        "meta_classification_type": "U",
        "meta_norad_cat_id": 64903,
        "meta_element_set_no": 999,
        "meta_rev_at_epoch": 2214,
        "meta_bstar": 0.00021881164,
        "meta_mean_motion_dot": 4.673e-05,
        "meta_mean_motion_ddot": 0,
        "tle_line1": "1 64903U 25156E   25352.93180922  .00004673  00000+0  21881-3 0  9994",
        "tle_line2": "2 64903  97.4346  69.1094 0000910  79.7349 280.3988 15.20207451 22149"
      },
      "geometry": {
        "type": "Point",
        "coordinates": [
          -145.6278975880573,
          -77.2277449811708
        ]
      }
    },
    {
      "type": "Feature",
      "properties": {
        "norad_id": 66514,
        "name": "SENTINEL-6B",
        "group": "resource",
        "lat": 64.61530499982666,
        "lon": -100.92743947770477,
        "alt_km": 1334.2793832113093,
        "timestamp": "2025-12-19T08:58:48.995523+00:00",
        "meta_object_name": "SENTINEL-6B",
        "meta_object_id": "2025-264A",
        "meta_epoch": "2025-12-12T06:01:21.428544",
        "meta_mean_motion": 12.81479578,
        "meta_eccentricity": 0.00078482,
        "meta_inclination": 66.0385,
        "meta_ra_of_asc_node": 163.4531,
        "meta_arg_of_pericenter": 270.1376,
        "meta_mean_anomaly": 89.874,
        "meta_ephemeris_type": 0,
        "meta_classification_type": "U",
        "meta_norad_cat_id": 66514,
        "meta_element_set_no": 999,
        "meta_rev_at_epoch": 322,
        "meta_bstar": 0.00018573353,
        "meta_mean_motion_dot": -1.8e-07,
        "meta_mean_motion_ddot": 0,
        "tle_line1": "1 66514U 25264A   25346.25094246 -.00000018  00000+0  18573-3 0  9999",
        "tle_line2": "2 66514  66.0385 163.4531 0007848 270.1376  89.8740 12.81479578  3223"
      },
      "geometry": {
        "type": "Point",
        "coordinates": [
          -100.92743947770477,
          64.61530499982666
        ]
      }
    }
  ]
}